#cP2023  3 27  0  0  0.00000000      96 ORBIT IGS20 HLM  IGS
## 2255  86400.00000000   900.00000000 60030 0.0000000000000
+   32   G01G02G03G04G05G06G07G08G09G10G11G12G13G14G15G16G17
+        G18G19G20G21G22G23G24G25G26G27G28G29G30G31G32  0  0
+          0  0  0  0  0  0  0  0  0  0  0  0  0  0  0  0  0
+          0  0  0  0  0  0  0  0  0  0  0  0  0  0  0  0  0
+          0  0  0  0  0  0  0  0  0  0  0  0  0  0  0  0  0
++         2  2  2  2  2  2  2  2  2  2  2  2  2  2  2  2  2
++         2  2  2  2  3  2  3  2  2  2  3  2  2  2  2  0  0
++         0  0  0  0  0  0  0  0  0  0  0  0  0  0  0  0  0
++         0  0  0  0  0  0  0  0  0  0  0  0  0  0  0  0  0
++         0  0  0  0  0  0  0  0  0  0  0  0  0  0  0  0  0
%c G  cc GPS ccc cccc cccc cccc cccc ccccc ccccc ccccc ccccc
%c cc cc ccc ccc cccc cccc cccc cccc ccccc ccccc ccccc ccccc
%f  1.2500000  1.025000000  0.00000000000  0.000000000000000
%f  0.0000000  0.000000000  0.00000000000  0.000000000000000
%i    0    0    0    0      0      0      0      0         0
%i    0    0    0    0      0      0      0      0         0
/* RAPID ORBIT COMBINATION FROM WEIGHTED AVERAGE OF:        
/* cod emr esa gfz grg jpl ngs sio usn whu                  
/* REFERENCED TO IGS TIME (IGST) AND TO WEIGHTED MEAN POLE: 
/* PCV:IGS20_2233 OL/AL:FES2014b NONE     Y  ORB:CMB CLK:CMB
*  2023  3 27 22 30  0.00000000
PG01  22306.565125  14687.303357   1276.123683    198.624744 11  9  6 104       
PG02 -23816.910263 -10635.617585  -3632.037809   -611.084879 11 10  7 119       
PG03  12724.798270  11647.617034  20105.879328   -341.799875  3  5  6 101       
PG04  20693.899225   3341.658013  16388.152674      2.866830  7  7  7  98       
PG05  -5861.175785 -24128.328435  -9429.086438   -121.133111  6  6  9 128       
PG06   7679.310020 -12457.708585  22227.224630    584.116587  5  7  1 104       
PG07  22654.544106   4046.845492 -13230.508251    214.153735  6  6  8 104       
PG08  10673.356597  11488.091581 -21543.653460   -114.977526  8  7  3 104       
PG09  24585.208156  -6380.724858   7770.878583   -192.066006  5  7  4  83       
PG10 -11151.279646  18944.321170 -14503.154128    -30.343189  7  4  7  97       
PG11  -6221.278881 -19464.992071  16994.774525   -143.577322  6  9  8  98       
PG12 -11121.993588 -14615.458457  18938.417406   -356.761619  8  5  8  90       
PG13  -2107.688147 -15105.880733 -21904.975135    497.016643  7  9  7 113       
PG14  13361.896405 -16213.128997 -16160.925794      7.917648  3  9  6  83       
PG15 -12518.172272 -10692.112854 -21328.851385     25.378940  7  8  3 103       
PG16   1135.870292  25290.952975  -7505.233638   -512.804681  7  7  5  99       
PG17  22003.976198 -13710.935759   6442.429121    707.718955  8  7  8 104       
PG18 -20606.313679   -561.745633 -16829.235765   -198.358006 10  7  7 104       
PG19  15448.383228 -15820.704461  14271.966865    295.793346  7  7  3  88       
PG20  -1414.288920 -26594.435890   1493.070560    442.398772  8  7  9 103       
PG21  20190.628433  16492.901861  -6442.750777    154.324105  6  5  3 109       
PG22 -11691.115729  17133.361501  16937.843705    453.359179 11  7  5 121       
PG23 -14599.126047   7237.878583 -20938.389456     13.097358  7  3  8 117       
PG24 -21784.024123 -15245.248738  -3611.710815   -128.856512 10  8  7 132       
PG25 -15026.045428  -3031.007776  21390.649722    431.087575  4  3  7  96       
PG26  -4884.453811  25102.678356   6364.918381    241.964428  8  6  6  84       
PG27  -1374.263592  16605.427433 -20829.561953     71.659872  5  6  6  97       
PG28  -9409.999712  11977.108523  21729.847775     53.465334  6  7  7  81       
PG29 -24165.775538   1544.815074  10953.712743   -592.887350  6  8  9 115       
PG30  15458.981132  -7417.825085 -20240.090193   -525.085762  3  8  5 102       
PG31  -3888.336837  15477.271910  20996.961382   -212.619923  6  7  5  93       
PG32 -19405.539631  16058.094580   8275.673356   -435.545466  6  5  7 101       
*  2023  3 27 22 45  0.00000000
PG01  22240.818501  14817.313195  -1615.314540    198.621689 10  8  6  96       
PG02 -23981.124111 -11013.232129   -762.724165   -611.082287 12 10  6 112       
PG03  12540.617502  13883.145359  18776.664811   -341.793029  4  5  6  91       
PG04  18983.440839   4327.179328  18126.658494      2.874839  7  7  7  99       
PG05  -5633.546099 -25037.700660  -6763.226862   -121.134516  6  7 10 121       
PG06   9792.845875 -11092.823997  22127.641566    584.118524  5  7  2 104       
PG07  23745.614763   4995.346885 -10908.144569    214.146487  7  6  9 109       
PG08   8525.863187  12694.717199 -21787.674500   -114.980062  8  7  5 114       
PG09  23787.725733  -5662.012651  10352.547570   -192.059098  5  7  4  84       
PG10 -11250.143389  17125.509732 -16548.529495    -30.344955  7  5  7  97       
PG11  -4479.714276 -18403.074575  18643.933611   -143.588062  6  8  8  96       
PG12 -10754.438376 -16713.796221  17382.171272   -356.765820  9  6  9  91       
PG13    204.916068 -15890.527274 -21423.933183    497.022358  8  9  8 121       
PG14  13403.019537 -14247.135547 -17898.421976      7.927362  4 10  5  76       
PG15 -10603.071066 -12088.720827 -21601.137910     25.382041  8  8  3 106       
PG16    789.017930  25924.982105  -4729.314865   -512.802545  8  7  5  98       
PG17  22563.977330 -13745.919777   3640.842990    707.720652  8  8  8  84       
PG18 -22034.347006  -1673.898730 -14841.118034   -198.372973 10  7  6  96       
PG19  16955.619861 -16203.594380  11957.499289    295.798003  8  7  4  74       
PG20  -1100.449183 -26306.160746   4284.832463    442.396353  8  8  9 102       
PG21  19272.909039  16226.291704  -9067.202183    154.324163  6  5  3 113       
PG22 -13377.119760  17661.377907  14967.685592    453.365457 10  7  6 102       
PG23 -14629.508435   4802.193517 -21619.229901     13.099430  7  3  8 116       
PG24 -21187.299416 -15257.795631  -6314.551270   -128.870027  8  7  8 135       
PG25 -14922.733036  -5520.463326  20991.543877    431.090249  5  3  7  93       
PG26  -5242.958524  24206.964055   8995.305361    241.964317  8  6  6  93       
PG27  -3438.694203  17578.705265 -19713.996220     71.652389  5  6  6  86       
PG28 -11528.088794  10702.343763  21371.634761     53.472970  7  7  8 104       
PG29 -22953.556275    837.712223  13355.245093   -592.888902  7  8  9 116       
PG30  17310.320950  -6086.046371 -19186.887995   -525.084239  3  8  6 111       
PG31  -5981.866749  14161.071745  21464.825401   -212.620315  7  8  4 104       
PG32 -20211.042328  16196.816193   5560.326241   -435.554856  7  5  8 104       
*  2023  3 27 23  0  0.00000000
PG01  21903.170981  14788.292889  -4479.638725    198.618672  8  8  6 102       
PG02 -23867.510032 -11241.685788   2120.020919   -611.079722 12  9  6 112       
PG03  12476.036127  15954.107262  17122.358894   -341.786184  4  4  7  97       
PG04  17170.236105   5488.695760  19554.702274      2.882854  7  7  7 106       
PG05  -5432.902823 -25650.479135  -3980.712288   -121.135564  7  7 10 101       
PG06  11951.226822  -9866.590456  21649.842242    584.120511  5  7  3 115       
PG07  24643.583031   5749.008535  -8398.931877    214.138972  7  6  9  88       
PG08   6435.380777  14017.210350 -21659.259498   -114.981737  9  7  6 114       
PG09  22789.415943  -4752.000681  12755.902448   -192.052153  6  6  4 108       
PG10 -11451.465465  15097.526875 -18301.890485    -30.346539  7  5  7 125       
PG11  -2541.103285 -17345.739987  19972.876372   -143.598810  6  8  7 115       
PG12 -10508.469884 -18631.272084  15521.454288   -356.769893  9  6  9 114       
PG13   2405.532419 -16769.897596 -20578.969693    497.026377  8  9  9 118       
PG14  13539.513400 -12107.340683 -19326.301895      7.937058  5 11  5  76       
PG15  -8748.466423 -13585.242106 -21516.760811     25.385039  9  8  4 113       
PG16    495.106124  26255.899666  -1870.215773   -512.800271  9  7  5  94       
PG17  22840.280474 -13661.078491    777.408337    707.722457  9  9  9  96       
PG18 -23313.109583  -2586.706275 -12599.273941   -198.387921 11  8  6  98       
PG19  18187.874351 -16549.515374   9431.696082    295.802206  8  6  4  84       
PG20   -715.775726 -25729.485861   7003.798111    442.394236  9  8  9 114       
PG21  18074.734470  15895.606855 -11539.264992    154.323964  7  5  3 113       
PG22 -14826.355059  18173.132252  12745.051684    453.372005 10  7  7  92       
PG23 -14793.693718   2317.044980 -21927.313977     13.101452  7  4  8 106       
PG24 -20324.315754 -15177.752321  -8912.345271   -128.883627  9  6  8 142       
PG25 -14942.796174  -7941.669379  20222.138421    431.092960  5  3  6 106       
PG26  -5667.093830  23039.709348  11467.168876    241.964192  8  6  6  98       
PG27  -5328.887500  18587.229706 -18262.098466     71.644930  6  5  6  92       
PG28 -13654.989669   9567.745034  20644.701661     53.480559  8  8  8 104       
PG29 -21549.941179    -52.123064  15527.165676   -592.890546  7  8  9 110       
PG30  19102.022039  -4914.872299 -17803.080056   -525.082692  4  8  6 114       
PG31  -8163.113359  12938.362168  21556.689524   -212.621443  7  8  4 104       
PG32 -20742.339510  16211.765503   2748.539556   -435.564381  7  5  8 101       
EOF
